CENTAURI-1              
1 43809U 18099BD  26186.08812442  .00009446  00000+0  48638-3 0  9997
2 43809  97.4209 237.4243 0012484 264.6267  95.3542 15.16554376415218
CENTAURI-6              
1 59451U 24066K   26186.37709648  .00005637  00000+0  39745-3 0  9990
2 59451  45.6049 159.4917 0001209 236.6380 123.4389 15.05975820122861
CENTAURI-7              
1 62708U 25009DD  26186.36539738  .00006868  00000+0  58744-3 0  9994
2 62708  97.7078 266.4091 0002568 122.2162 237.9310 14.97923706 80188
CENTAURI-8              
1 62714U 25009DK  26186.19340606  .00005203  00000+0  44668-3 0  9998
2 62714  97.7052 266.0670 0003254  90.2127 269.9468 14.97895095 80171
