{"fetched_at":"2026-07-06T08:46:55.629Z","source":"https://celestrak.org/NORAD/elements/gp.php?NAME=CENTAURI&FORMAT=JSON","constellation":"myriota","records":[{"OBJECT_NAME":"CENTAURI-1","OBJECT_ID":"2018-099BD","EPOCH":"2026-07-05T02:06:53.949024","CLASSIFICATION_TYPE":"U","MEAN_MOTION":15.16554375,"ECCENTRICITY":0.0012485,"INCLINATION":97.4209,"RA_OF_ASC_NODE":237.4243,"ARG_OF_PERICENTER":264.6267,"MEAN_ANOMALY":95.3542,"EPHEMERIS_TYPE":0,"NORAD_CAT_ID":43809,"ELEMENT_SET_NO":999,"REV_AT_EPOCH":41521,"BSTAR":0.00048638,"MEAN_MOTION_DOT":0.00009446,"MEAN_MOTION_DDOT":0},{"OBJECT_NAME":"CENTAURI-6","OBJECT_ID":"2024-066K","EPOCH":"2026-07-05T09:03:01.135008","CLASSIFICATION_TYPE":"U","MEAN_MOTION":15.0597582,"ECCENTRICITY":0.000121,"INCLINATION":45.6049,"RA_OF_ASC_NODE":159.4917,"ARG_OF_PERICENTER":236.638,"MEAN_ANOMALY":123.4389,"EPHEMERIS_TYPE":0,"NORAD_CAT_ID":59451,"ELEMENT_SET_NO":999,"REV_AT_EPOCH":12286,"BSTAR":0.00039745,"MEAN_MOTION_DOT":0.00005637,"MEAN_MOTION_DDOT":0},{"OBJECT_NAME":"CENTAURI-7","OBJECT_ID":"2025-009DD","EPOCH":"2026-07-05T08:46:10.332768","CLASSIFICATION_TYPE":"U","MEAN_MOTION":14.97923706,"ECCENTRICITY":0.0002569,"INCLINATION":97.7078,"RA_OF_ASC_NODE":266.4091,"ARG_OF_PERICENTER":122.2162,"MEAN_ANOMALY":237.931,"EPHEMERIS_TYPE":0,"NORAD_CAT_ID":62708,"ELEMENT_SET_NO":999,"REV_AT_EPOCH":8018,"BSTAR":0.00058744,"MEAN_MOTION_DOT":0.00006868,"MEAN_MOTION_DDOT":0},{"OBJECT_NAME":"CENTAURI-8","OBJECT_ID":"2025-009DK","EPOCH":"2026-07-05T04:38:30.282720","CLASSIFICATION_TYPE":"U","MEAN_MOTION":14.97895095,"ECCENTRICITY":0.0003254,"INCLINATION":97.7052,"RA_OF_ASC_NODE":266.067,"ARG_OF_PERICENTER":90.2127,"MEAN_ANOMALY":269.9468,"EPHEMERIS_TYPE":0,"NORAD_CAT_ID":62714,"ELEMENT_SET_NO":999,"REV_AT_EPOCH":8017,"BSTAR":0.00044668,"MEAN_MOTION_DOT":0.00005203,"MEAN_MOTION_DDOT":0}]}
